{"type": "FeatureCollection", "features": [ {"type": "Feature", "properties": {"norad_id": 57401, "name": "TIANMU-1 09", "group": "weather", "lat": 37.95054031862556, "lon": -127.65979045256076, "alt_km": 478.2139603728392, "timestamp": "2025-12-23T16:57:11.988472+00:00", "meta": {"OBJECT_NAME": "TIANMU-1 09", "OBJECT_ID": "2023-101C", "EPOCH": "2025-12-23T06:54:27.526176", "MEAN_MOTION": 15.28231168, "ECCENTRICITY": 0.00063333, "INCLINATION": 97.2803, "RA_OF_ASC_NODE": 46.209, "ARG_OF_PERICENTER": 55.1233, "MEAN_ANOMALY": 305.0602, "EPHEMERIS_TYPE": 0, "CLASSIFICATION_TYPE": "U", "NORAD_CAT_ID": 57401, "ELEMENT_SET_NO": 999, "REV_AT_EPOCH": 13476, "BSTAR": 0.00030748898, "MEAN_MOTION_DOT": 8.392e-05, "MEAN_MOTION_DDOT": 0}, "tle": {"line1": "1 57401U 23101C   25357.28781859  .00008392  00000+0  30749-3 0  9991", "line2": "2 57401  97.2803  46.2090 0006333  55.1233 305.0602 15.28231168134767"}}, "geometry": {"type": "Point", "coordinates": [-127.65979045256076, 37.95054031862556]}}, {"type": "Feature", "properties": {"norad_id": 57402, "name": "TIANMU-1 10", "group": "weather", "lat": -46.568662551099386, "lon": 55.24913663026033, "alt_km": 488.730556227476, "timestamp": "2025-12-23T16:57:11.988487+00:00", "meta": {"OBJECT_NAME": "TIANMU-1 10", "OBJECT_ID": "2023-101D", "EPOCH": "2025-12-23T04:35:13.710624", "MEAN_MOTION": 15.28221823, "ECCENTRICITY": 0.00080685, "INCLINATION": 97.2883, "RA_OF_ASC_NODE": 46.9753, "ARG_OF_PERICENTER": 52.9922, "MEAN_ANOMALY": 307.2055, "EPHEMERIS_TYPE": 0, "CLASSIFICATION_TYPE": "U", "NORAD_CAT_ID": 57402, "ELEMENT_SET_NO": 999, "REV_AT_EPOCH": 13474, "BSTAR": 0.00030001879, "MEAN_MOTION_DOT": 8.186e-05, "MEAN_MOTION_DDOT": 0}, "tle": {"line1": "1 57402U 23101D   25357.19113091  .00008186  00000+0  30002-3 0  9992", "line2": "2 57402  97.2883  46.9753 0008068  52.9922 307.2055 15.28221823134747"}}, "geometry": {"type": "Point", "coordinates": [55.24913663026033, -46.568662551099386]}}, {"type": "Feature", "properties": {"norad_id": 57490, "name": "FENGYUN 3F", "group": "weather", "lat": -80.44502316432411, "lon": -179.73479468296563, "alt_km": 833.5413505588131, "timestamp": "2025-12-23T16:57:11.988498+00:00", "meta": {"OBJECT_NAME": "FENGYUN 3F", "OBJECT_ID": "2023-111A", "EPOCH": "2025-12-23T07:14:52.757664", "MEAN_MOTION": 14.19896257, "ECCENTRICITY": 8.069e-05, "INCLINATION": 98.7069, "RA_OF_ASC_NODE": 65.4244, "ARG_OF_PERICENTER": 115.6617, "MEAN_ANOMALY": 244.4643, "EPHEMERIS_TYPE": 0, "CLASSIFICATION_TYPE": "U", "NORAD_CAT_ID": 57490, "ELEMENT_SET_NO": 999, "REV_AT_EPOCH": 12390, "BSTAR": 6.2042386e-05, "MEAN_MOTION_DOT": 8.8e-07, "MEAN_MOTION_DDOT": 0}, "tle": {"line1": "1 57490U 23111A   25357.30199951  .00000088  00000+0  62042-4 0  9995", "line2": "2 57490  98.7069  65.4244 0000806 115.6617 244.4643 14.19896257123906"}}, "geometry": {"type": "Point", "coordinates": [-179.73479468296563, -80.44502316432411]}}, {"type": "Feature", "properties": {"norad_id": 58584, "name": "ARKTIKA-M 2", "group": "weather", "lat": 35.81834910328932, "lon": -27.691726259937546, "alt_km": 18372.983810226913, "timestamp": "2025-12-23T16:57:11.988510+00:00", "meta": {"OBJECT_NAME": "ARKTIKA-M 2", "OBJECT_ID": "2023-198A", "EPOCH": "2025-12-22T07:11:23.769888", "MEAN_MOTION": 2.00602601, "ECCENTRICITY": 0.68656622, "INCLINATION": 63.2256, "RA_OF_ASC_NODE": 173.8511, "ARG_OF_PERICENTER": 268.066, "MEAN_ANOMALY": 18.8407, "EPHEMERIS_TYPE": 0, "CLASSIFICATION_TYPE": "U", "NORAD_CAT_ID": 58584, "ELEMENT_SET_NO": 999, "REV_AT_EPOCH": 1477, "BSTAR": 0, "MEAN_MOTION_DOT": 2.07e-06, "MEAN_MOTION_DDOT": 0}, "tle": {"line1": "1 58584U 23198A   25356.29958067  .00000207  00000+0  00000+0 0  9997", "line2": "2 58584  63.2256 173.8511 6865662 268.0660  18.8407  2.00602601 14773"}}, "geometry": {"type": "Point", "coordinates": [-27.691726259937546, 35.81834910328932]}}, {"type": "Feature", "properties": {"norad_id": 58645, "name": "TIANMU-1 11", "group": "weather", "lat": -5.259434751036441, "lon": 17.818430067527313, "alt_km": 495.461207842156, "timestamp": "2025-12-23T16:57:11.988523+00:00", "meta": {"OBJECT_NAME": "TIANMU-1 11", "OBJECT_ID": "2023-205A", "EPOCH": "2025-12-23T07:31:34.048992", "MEAN_MOTION": 15.24720806, "ECCENTRICITY": 0.00075251, "INCLINATION": 97.3593, "RA_OF_ASC_NODE": 16.7508, "ARG_OF_PERICENTER": 265.1122, "MEAN_ANOMALY": 94.9257, "EPHEMERIS_TYPE": 0, "CLASSIFICATION_TYPE": "U", "NORAD_CAT_ID": 58645, "ELEMENT_SET_NO": 999, "REV_AT_EPOCH": 11070, "BSTAR": 0.00024737907, "MEAN_MOTION_DOT": 6.055e-05, "MEAN_MOTION_DDOT": 0}, "tle": {"line1": "1 58645U 23205A   25357.31358853  .00006055  00000+0  24738-3 0  9990", "line2": "2 58645  97.3593  16.7508 0007525 265.1122  94.9257 15.24720806110701"}}, "geometry": {"type": "Point", "coordinates": [17.818430067527313, -5.259434751036441]}}, {"type": "Feature", "properties": {"norad_id": 58646, "name": "TIANMU-1 12", "group": "weather", "lat": -22.267795092092904, "lon": -166.09453972901818, "alt_km": 494.28977203176055, "timestamp": "2025-12-23T16:57:11.988533+00:00", "meta": {"OBJECT_NAME": "TIANMU-1 12", "OBJECT_ID": "2023-205B", "EPOCH": "2025-12-23T06:37:01.007040", "MEAN_MOTION": 15.2460607, "ECCENTRICITY": 0.00059037, "INCLINATION": 97.3581, "RA_OF_ASC_NODE": 16.5156, "ARG_OF_PERICENTER": 243.2758, "MEAN_ANOMALY": 116.7876, "EPHEMERIS_TYPE": 0, "CLASSIFICATION_TYPE": "U", "NORAD_CAT_ID": 58646, "ELEMENT_SET_NO": 999, "REV_AT_EPOCH": 11068, "BSTAR": 0.0002789814, "MEAN_MOTION_DOT": 6.813e-05, "MEAN_MOTION_DDOT": 0}, "tle": {"line1": "1 58646U 23205B   25357.27570610  .00006813  00000+0  27898-3 0  9995", "line2": "2 58646  97.3581  16.5156 0005903 243.2758 116.7876 15.24606070110689"}}, "geometry": {"type": "Point", "coordinates": [-166.09453972901818, -22.267795092092904]}}, {"type": "Feature", "properties": {"norad_id": 58647, "name": "TIANMU-1 13", "group": "weather", "lat": 19.825765176490616, "lon": 14.472873469068544, "alt_km": 496.23059029189426, "timestamp": "2025-12-23T16:57:11.988543+00:00", "meta": {"OBJECT_NAME": "TIANMU-1 13", "OBJECT_ID": "2023-205C", "EPOCH": "2025-12-23T07:24:53.760384", "MEAN_MOTION": 15.24649949, "ECCENTRICITY": 0.00064927, "INCLINATION": 97.3609, "RA_OF_ASC_NODE": 16.7537, "ARG_OF_PERICENTER": 220.5778, "MEAN_ANOMALY": 139.4976, "EPHEMERIS_TYPE": 0, "CLASSIFICATION_TYPE": "U", "NORAD_CAT_ID": 58647, "ELEMENT_SET_NO": 999, "REV_AT_EPOCH": 11068, "BSTAR": 0.00025331747, "MEAN_MOTION_DOT": 6.188e-05, "MEAN_MOTION_DDOT": 0}, "tle": {"line1": "1 58647U 23205C   25357.30895556  .00006188  00000+0  25332-3 0  9995", "line2": "2 58647  97.3609  16.7537 0006492 220.5778 139.4976 15.24649949110685"}}, "geometry": {"type": "Point", "coordinates": [14.472873469068544, 19.825765176490616]}}, {"type": "Feature", "properties": {"norad_id": 58648, "name": "TIANMU-1 14", "group": "weather", "lat": 68.33878840041692, "lon": -144.53989403553723, "alt_km": 487.3445601796975, "timestamp": "2025-12-23T16:57:11.988554+00:00", "meta": {"OBJECT_NAME": "TIANMU-1 14", "OBJECT_ID": "2023-205D", "EPOCH": "2025-12-23T07:01:09.551424", "MEAN_MOTION": 15.24632451, "ECCENTRICITY": 0.00072044, "INCLINATION": 97.3542, "RA_OF_ASC_NODE": 16.0765, "ARG_OF_PERICENTER": 226.8591, "MEAN_ANOMALY": 133.2045, "EPHEMERIS_TYPE": 0, "CLASSIFICATION_TYPE": "U", "NORAD_CAT_ID": 58648, "ELEMENT_SET_NO": 999, "REV_AT_EPOCH": 11068, "BSTAR": 0.00026062367, "MEAN_MOTION_DOT": 6.366e-05, "MEAN_MOTION_DDOT": 0}, "tle": {"line1": "1 58648U 23205D   25357.29247166  .00006366  00000+0  26062-3 0  9991", "line2": "2 58648  97.3542  16.0765 0007204 226.8591 133.2045 15.24632451110681"}}, "geometry": {"type": "Point", "coordinates": [-144.53989403553723, 68.33878840041692]}}, {"type": "Feature", "properties": {"norad_id": 58660, "name": "TIANMU-1 19", "group": "weather", "lat": 41.149485436266595, "lon": -64.72017295840993, "alt_km": 477.22926145354995, "timestamp": "2025-12-23T16:57:11.988589+00:00", "meta": {"OBJECT_NAME": "TIANMU-1 19", "OBJECT_ID": "2023-208A", "EPOCH": "2025-12-23T06:55:10.909344", "MEAN_MOTION": 15.28033764, "ECCENTRICITY": 0.00046732, "INCLINATION": 97.4393, "RA_OF_ASC_NODE": 108.3058, "ARG_OF_PERICENTER": 207.3431, "MEAN_ANOMALY": 152.7564, "EPHEMERIS_TYPE": 0, "CLASSIFICATION_TYPE": "U", "NORAD_CAT_ID": 58660, "ELEMENT_SET_NO": 999, "REV_AT_EPOCH": 11043, "BSTAR": 0.00036868442, "MEAN_MOTION_DOT": 0.00010013, "MEAN_MOTION_DDOT": 0}, "tle": {"line1": "1 58660U 23208A   25357.28832071  .00010013  00000+0  36868-3 0  9991", "line2": "2 58660  97.4393 108.3058 0004673 207.3431 152.7564 15.28033764110435"}}, "geometry": {"type": "Point", "coordinates": [-64.72017295840993, 41.149485436266595]}}, {"type": "Feature", "properties": {"norad_id": 58661, "name": "TIANMU-1 20", "group": "weather", "lat": -77.24852951720916, "lon": -106.05241262883403, "alt_km": 481.875525000326, "timestamp": "2025-12-23T16:57:11.988605+00:00", "meta": {"OBJECT_NAME": "TIANMU-1 20", "OBJECT_ID": "2023-208B", "EPOCH": "2025-12-23T06:23:55.925664", "MEAN_MOTION": 15.29223007, "ECCENTRICITY": 0.00067285, "INCLINATION": 97.4332, "RA_OF_ASC_NODE": 108.7421, "ARG_OF_PERICENTER": 222.0498, "MEAN_ANOMALY": 138.0227, "EPHEMERIS_TYPE": 0, "CLASSIFICATION_TYPE": "U", "NORAD_CAT_ID": 58661, "ELEMENT_SET_NO": 999, "REV_AT_EPOCH": 11050, "BSTAR": 0.00036034962, "MEAN_MOTION_DOT": 0.00010151, "MEAN_MOTION_DDOT": 0}, "tle": {"line1": "1 58661U 23208B   25357.26661951  .00010151  00000+0  36035-3 0  9996", "line2": "2 58661  97.4332 108.7421 0006728 222.0498 138.0227 15.29223007110500"}}, "geometry": {"type": "Point", "coordinates": [-106.05241262883403, -77.24852951720916]}}]}